[{"OBJECT_NAME":"STARLINK-30795","OBJECT_ID":"2023-162A","EPOCH":"2023-11-24T22:00:00.999936","MEAN_MOTION":15.15935085,"ECCENTRICITY":0.0001732,"INCLINATION":42.9989,"RA_OF_ASC_NODE":359.3003,"ARG_OF_PERICENTER":268.2495,"MEAN_ANOMALY":353.9107,"EPHEMERIS_TYPE":0,"CLASSIFICATION_TYPE":"U","NORAD_CAT_ID":58118,"ELEMENT_SET_NO":999,"REV_AT_EPOCH":599,"BSTAR":0.0033991,"MEAN_MOTION_DOT":0.00066746,"MEAN_MOTION_DDOT":0},{"OBJECT_NAME":"STARLINK-30765","OBJECT_ID":"2023-162B","EPOCH":"2023-11-24T22:00:00.999936","MEAN_MOTION":15.21660708,"ECCENTRICITY":0.0001356,"INCLINATION":43.0006,"RA_OF_ASC_NODE":358.6449,"ARG_OF_PERICENTER":261.8288,"MEAN_ANOMALY":273.6476,"EPHEMERIS_TYPE":0,"CLASSIFICATION_TYPE":"U","NORAD_CAT_ID":58119,"ELEMENT_SET_NO":999,"REV_AT_EPOCH":610,"BSTAR":-0.10231,"MEAN_MOTION_DOT":-0.02114952,"MEAN_MOTION_DDOT":0},{"OBJECT_NAME":"STARLINK-30768","OBJECT_ID":"2023-162C","EPOCH":"2023-11-24T22:00:00.999936","MEAN_MOTION":15.15933383,"ECCENTRICITY":0.0001694,"INCLINATION":42.9991,"RA_OF_ASC_NODE":359.2408,"ARG_OF_PERICENTER":288.7983,"MEAN_ANOMALY":358.2302,"EPHEMERIS_TYPE":0,"CLASSIFICATION_TYPE":"U","NORAD_CAT_ID":58120,"ELEMENT_SET_NO":999,"REV_AT_EPOCH":593,"BSTAR":0.0034156,"MEAN_MOTION_DOT":0.00067071,"MEAN_MOTION_DDOT":0},{"OBJECT_NAME":"STARLINK-30799","OBJECT_ID":"2023-162D","EPOCH":"2023-11-24T22:00:00.999936","MEAN_MOTION":15.2209088,"ECCENTRICITY":0.0001146,"INCLINATION":43.0005,"RA_OF_ASC_NODE":358.6195,"ARG_OF_PERICENTER":261.6648,"MEAN_ANOMALY":284.2295,"EPHEMERIS_TYPE":0,"CLASSIFICATION_TYPE":"U","NORAD_CAT_ID":58121,"ELEMENT_SET_NO":999,"REV_AT_EPOCH":609,"BSTAR":-0.10091,"MEAN_MOTION_DOT":-0.02112987,"MEAN_MOTION_DDOT":0},{"OBJECT_NAME":"STARLINK-30759","OBJECT_ID":"2023-162E","EPOCH":"2023-11-24T22:00:00.999936","MEAN_MOTION":15.15916841,"ECCENTRICITY":0.0001669,"INCLINATION":42.9992,"RA_OF_ASC_NODE":359.1815,"ARG_OF_PERICENTER":273.4634,"MEAN_ANOMALY":38.3677,"EPHEMERIS_TYPE":0,"CLASSIFICATION_TYPE":"U","NORAD_CAT_ID":58122,"ELEMENT_SET_NO":999,"REV_AT_EPOCH":606,"BSTAR":0.003462,"MEAN_MOTION_DOT":0.00067962,"MEAN_MOTION_DDOT":0},{"OBJECT_NAME":"STARLINK-30781","OBJECT_ID":"2023-162F","EPOCH":"2023-11-24T22:00:00.999936","MEAN_MOTION":15.1592256,"ECCENTRICITY":0.0001591,"INCLINATION":42.9992,"RA_OF_ASC_NODE":359.1513,"ARG_OF_PERICENTER":287.541,"MEAN_ANOMALY":36.8541,"EPHEMERIS_TYPE":0,"CLASSIFICATION_TYPE":"U","NORAD_CAT_ID":58123,"ELEMENT_SET_NO":999,"REV_AT_EPOCH":604,"BSTAR":0.0035372,"MEAN_MOTION_DOT":0.00069469,"MEAN_MOTION_DDOT":0},{"OBJECT_NAME":"STARLINK-30754","OBJECT_ID":"2023-162G","EPOCH":"2023-11-24T22:00:00.999936","MEAN_MOTION":15.22501874,"ECCENTRICITY":0.000131,"INCLINATION":43.0004,"RA_OF_ASC_NODE":358.5938,"ARG_OF_PERICENTER":262.1148,"MEAN_ANOMALY":294.1609,"EPHEMERIS_TYPE":0,"CLASSIFICATION_TYPE":"U","NORAD_CAT_ID":58124,"ELEMENT_SET_NO":999,"REV_AT_EPOCH":610,"BSTAR":-0.099742,"MEAN_MOTION_DOT":-0.02114217,"MEAN_MOTION_DDOT":0},{"OBJECT_NAME":"STARLINK-30766","OBJECT_ID":"2023-162H","EPOCH":"2023-11-24T22:00:00.999936","MEAN_MOTION":15.15897322,"ECCENTRICITY":0.0001225,"INCLINATION":42.9994,"RA_OF_ASC_NODE":359.0915,"ARG_OF_PERICENTER":297.5705,"MEAN_ANOMALY":51.6183,"EPHEMERIS_TYPE":0,"CLASSIFICATION_TYPE":"U","NORAD_CAT_ID":58125,"ELEMENT_SET_NO":999,"REV_AT_EPOCH":593,"BSTAR":0.0037634,"MEAN_MOTION_DOT":0.00073918,"MEAN_MOTION_DDOT":0},{"OBJECT_NAME":"STARLINK-30767","OBJECT_ID":"2023-162J","EPOCH":"2023-11-25T06:00:00.999648","MEAN_MOTION":15.16004144,"ECCENTRICITY":0.0002421,"INCLINATION":42.9992,"RA_OF_ASC_NODE":357.2145,"ARG_OF_PERICENTER":272.0962,"MEAN_ANOMALY":110.8002,"EPHEMERIS_TYPE":0,"CLASSIFICATION_TYPE":"U","NORAD_CAT_ID":58126,"ELEMENT_SET_NO":999,"REV_AT_EPOCH":656,"BSTAR":-0.0010455,"MEAN_MOTION_DOT":-0.00020627,"MEAN_MOTION_DDOT":0},{"OBJECT_NAME":"STARLINK-30790","OBJECT_ID":"2023-162K","EPOCH":"2023-11-25T06:00:00.999648","MEAN_MOTION":15.15975915,"ECCENTRICITY":0.0001223,"INCLINATION":42.9993,"RA_OF_ASC_NODE":357.1844,"ARG_OF_PERICENTER":262.1734,"MEAN_ANOMALY":133.2332,"EPHEMERIS_TYPE":0,"CLASSIFICATION_TYPE":"U","NORAD_CAT_ID":58127,"ELEMENT_SET_NO":999,"REV_AT_EPOCH":657,"BSTAR":-0.0022861,"MEAN_MOTION_DOT":-0.0004464,"MEAN_MOTION_DDOT":0},{"OBJECT_NAME":"STARLINK-30787","OBJECT_ID":"2023-162L","EPOCH":"2023-11-24T22:00:00.999936","MEAN_MOTION":15.15934046,"ECCENTRICITY":0.0001718,"INCLINATION":42.9998,"RA_OF_ASC_NODE":359.001,"ARG_OF_PERICENTER":277.2787,"MEAN_ANOMALY":109.3247,"EPHEMERIS_TYPE":0,"CLASSIFICATION_TYPE":"U","NORAD_CAT_ID":58128,"ELEMENT_SET_NO":999,"REV_AT_EPOCH":605,"BSTAR":0.0016083,"MEAN_MOTION_DOT":0.00031302,"MEAN_MOTION_DDOT":0},{"OBJECT_NAME":"STARLINK-30756","OBJECT_ID":"2023-162M","EPOCH":"2023-11-24T22:00:00.999936","MEAN_MOTION":15.22867846,"ECCENTRICITY":0.0001277,"INCLINATION":43.0002,"RA_OF_ASC_NODE":358.5675,"ARG_OF_PERICENTER":259.6805,"MEAN_ANOMALY":307.0852,"EPHEMERIS_TYPE":0,"CLASSIFICATION_TYPE":"U","NORAD_CAT_ID":58129,"ELEMENT_SET_NO":999,"REV_AT_EPOCH":600,"BSTAR":-0.098654,"MEAN_MOTION_DOT":-0.02114139,"MEAN_MOTION_DDOT":0},{"OBJECT_NAME":"STARLINK-30783","OBJECT_ID":"2023-162N","EPOCH":"2023-11-24T22:00:00.999936","MEAN_MOTION":15.15958225,"ECCENTRICITY":0.000143,"INCLINATION":43,"RA_OF_ASC_NODE":358.9411,"ARG_OF_PERICENTER":283.4845,"MEAN_ANOMALY":127.9966,"EPHEMERIS_TYPE":0,"CLASSIFICATION_TYPE":"U","NORAD_CAT_ID":58130,"ELEMENT_SET_NO":999,"REV_AT_EPOCH":589,"BSTAR":-0.00082673,"MEAN_MOTION_DOT":-0.00016347,"MEAN_MOTION_DDOT":0},{"OBJECT_NAME":"STARLINK-30757","OBJECT_ID":"2023-162P","EPOCH":"2023-11-25T06:00:00.999648","MEAN_MOTION":15.15966471,"ECCENTRICITY":0.0001177,"INCLINATION":42.9997,"RA_OF_ASC_NODE":357.0641,"ARG_OF_PERICENTER":294.6929,"MEAN_ANOMALY":150.4835,"EPHEMERIS_TYPE":0,"CLASSIFICATION_TYPE":"U","NORAD_CAT_ID":58131,"ELEMENT_SET_NO":999,"REV_AT_EPOCH":653,"BSTAR":-0.0019004,"MEAN_MOTION_DOT":-0.00037176,"MEAN_MOTION_DDOT":0},{"OBJECT_NAME":"STARLINK-30770","OBJECT_ID":"2023-162Q","EPOCH":"2023-11-24T22:00:00.999936","MEAN_MOTION":15.23256586,"ECCENTRICITY":0.0001497,"INCLINATION":43.0003,"RA_OF_ASC_NODE":358.5423,"ARG_OF_PERICENTER":267.9728,"MEAN_ANOMALY":309.0484,"EPHEMERIS_TYPE":0,"CLASSIFICATION_TYPE":"U","NORAD_CAT_ID":58132,"ELEMENT_SET_NO":999,"REV_AT_EPOCH":610,"BSTAR":-0.097535,"MEAN_MOTION_DOT":-0.0211468,"MEAN_MOTION_DDOT":0},{"OBJECT_NAME":"STARLINK-30758","OBJECT_ID":"2023-162R","EPOCH":"2023-11-25T06:00:00.999648","MEAN_MOTION":15.16084604,"ECCENTRICITY":0.0001505,"INCLINATION":43.0001,"RA_OF_ASC_NODE":357.0337,"ARG_OF_PERICENTER":288.6902,"MEAN_ANOMALY":169.1263,"EPHEMERIS_TYPE":0,"CLASSIFICATION_TYPE":"U","NORAD_CAT_ID":58133,"ELEMENT_SET_NO":999,"REV_AT_EPOCH":658,"BSTAR":-0.014484,"MEAN_MOTION_DOT":-0.00273709,"MEAN_MOTION_DDOT":0}]
