STARLINK-30795          
1 58118U 23162A   23328.91667824  .00066746  00000+0  33991-2 0  9993
2 58118  42.9989 359.3003 0001732 268.2495 353.9107 15.15935085  5991
STARLINK-30765          
1 58119U 23162B   23328.91667824 -.02114952  00000+0 -10231+0 0  9990
2 58119  43.0006 358.6449 0001356 261.8288 273.6476 15.21660708  6106
STARLINK-30768          
1 58120U 23162C   23328.91667824  .00067071  00000+0  34156-2 0  9992
2 58120  42.9991 359.2408 0001694 288.7983 358.2302 15.15933383  5939
STARLINK-30799          
1 58121U 23162D   23328.91667824 -.02112987  00000+0 -10091+0 0  9993
2 58121  43.0005 358.6195 0001146 261.6648 284.2295 15.22090880  6095
STARLINK-30759          
1 58122U 23162E   23328.91667824  .00067962  00000+0  34620-2 0  9999
2 58122  42.9992 359.1815 0001669 273.4634  38.3677 15.15916841  6065
STARLINK-30781          
1 58123U 23162F   23328.91667824  .00069469  00000+0  35372-2 0  9999
2 58123  42.9992 359.1513 0001591 287.5410  36.8541 15.15922560  6049
STARLINK-30754          
1 58124U 23162G   23328.91667824 -.02114217  00000+0 -99742-1 0  9996
2 58124  43.0004 358.5938 0001310 262.1148 294.1609 15.22501874  6106
STARLINK-30766          
1 58125U 23162H   23328.91667824  .00073918  00000+0  37634-2 0  9998
2 58125  42.9994 359.0915 0001225 297.5705  51.6183 15.15897322  5931
STARLINK-30767          
1 58126U 23162J   23329.25001157 -.00020627  00000+0 -10455-2 0  9991
2 58126  42.9992 357.2145 0002421 272.0962 110.8002 15.16004144  6568
STARLINK-30790          
1 58127U 23162K   23329.25001157 -.00044640  00000+0 -22861-2 0  9997
2 58127  42.9993 357.1844 0001223 262.1734 133.2332 15.15975915  6579
STARLINK-30787          
1 58128U 23162L   23328.91667824  .00031302  00000+0  16083-2 0  9997
2 58128  42.9998 359.0010 0001718 277.2787 109.3247 15.15934046  6057
STARLINK-30756          
1 58129U 23162M   23328.91667824 -.02114139  00000+0 -98654-1 0  9995
2 58129  43.0002 358.5675 0001277 259.6805 307.0852 15.22867846  6007
STARLINK-30783          
1 58130U 23162N   23328.91667824 -.00016347  00000+0 -82673-3 0  9993
2 58130  43.0000 358.9411 0001430 283.4845 127.9966 15.15958225  5894
STARLINK-30757          
1 58131U 23162P   23329.25001157 -.00037176  00000+0 -19004-2 0  9993
2 58131  42.9997 357.0641 0001177 294.6929 150.4835 15.15966471  6538
STARLINK-30770          
1 58132U 23162Q   23328.91667824 -.02114680  00000+0 -97535-1 0  9997
2 58132  43.0003 358.5423 0001497 267.9728 309.0484 15.23256586  6101
STARLINK-30758          
1 58133U 23162R   23329.25001157 -.00273709  00000+0 -14484-1 0  9995
2 58133  43.0001 357.0337 0001505 288.6902 169.1263 15.16084604  6586
